CTC1_L_00031016-03
1 67030U 26741RA  26037.47800926  .00000000  00000+0  00000-0 0  9999
2 67030  65.0000 180.0000 0000000   0.0000   0.0000 15.69614506    12
CTC1_L_00031016-04
1 67031U 24588TQ  26037.47800926  .00000000  00000+0  00000-0 0  9997
2 67031  65.0000 180.0000 0000000   0.0000  90.0000 15.69614506    12
CTC1_L_00031017-01
1 67032U 25787VL  26037.47800926  .00000000  00000+0  00000-0 0  9990
2 67032  65.0000 192.0000 0000000   0.0000 192.0000 15.69614506    19
CTC1_L_00031017-02
1 67033U 24334XE  26037.47800926  .00000000  00000+0  00000-0 0  9998
2 67033  65.0000 192.0000 0000000   0.0000 282.0000 15.69614506    10
CTC1_L_00031017-03
1 67034U 23910OS  26037.47800926  .00000000  00000+0  00000-0 0  9998
2 67034  65.0000 192.0000 0000000   0.0000  12.0000 15.69614506    12
CTC1_L_00031017-04
1 67035U 22798LB  26037.47800926  .00000000  00000+0  00000-0 0  9992
2 67035  65.0000 192.0000 0000000   0.0000 102.0000 15.69614506    13
CTC1_L_00031018-01
1 67036U 26286FR  26037.47800926  .00000000  00000+0  00000-0 0  9999
2 67036  65.0000 204.0000 0000000   0.0000 204.0000 15.69614506    11
CTC1_L_00031018-02
1 67037U 26902RE  26037.47800926  .00000000  00000+0  00000-0 0  9995
2 67037  65.0000 204.0000 0000000   0.0000 294.0000 15.69614506    11
CTC1_L_00031018-03
1 67038U 26510PR  26037.47800926  .00000000  00000+0  00000-0 0  9991
2 67038  65.0000 204.0000 0000000   0.0000  24.0000 15.69614506    13
CTC1_L_00031018-04
1 67039U 22547FS  26037.47800926  .00000000  00000+0  00000-0 0  9998
2 67039  65.0000 204.0000 0000000   0.0000 114.0000 15.69614506    14
CTC1_L_00031019-01
1 67040U 25431GW  26037.47800926  .00000000  00000+0  00000-0 0  9995
2 67040  65.0000 216.0000 0000000   0.0000 216.0000 15.69614506    12
CTC1_L_00031019-02
1 67041U 22994XG  26037.47800926  .00000000  00000+0  00000-0 0  9997
2 67041  65.0000 216.0000 0000000   0.0000 306.0000 15.69614506    13
CTC1_L_00031019-03
1 67042U 23861XA  26037.47800926  .00000000  00000+0  00000-0 0  9992
2 67042  65.0000 216.0000 0000000   0.0000  36.0000 15.69614506    14
CTC1_L_00031019-04
1 67043U 26331JA  26037.47800926  .00000000  00000+0  00000-0 0  9998
2 67043  65.0000 216.0000 0000000   0.0000 126.0000 15.69614506    15
CTC1_L_00031020-01
1 67044U 24517QV  26037.47800926  .00000000  00000+0  00000-0 0  9993
2 67044  65.0000 228.0000 0000000   0.0000 228.0000 15.69614506    12
CTC1_L_00031020-02
1 67045U 22729GT  26037.47800926  .00000000  00000+0  00000-0 0  9997
2 67045  65.0000 228.0000 0000000   0.0000 318.0000 15.69614506    13
CTC1_L_00031020-03
1 67046U 26918SS  26037.47800926  .00000000  00000+0  00000-0 0  9992
2 67046  65.0000 228.0000 0000000   0.0000  48.0000 15.69614506    14
CTC1_L_00031020-04
1 67047U 25820LH  26037.47800926  .00000000  00000+0  00000-0 0  9994
2 67047  65.0000 228.0000 0000000   0.0000 138.0000 15.69614506    15
CTC1_L_00031021-01
1 67048U 26160BF  26037.47800926  .00000000  00000+0  00000-0 0  9993
2 67048  65.0000 240.0000 0000000   0.0000 240.0000 15.69614506    14
CTC1_L_00031021-02
1 67049U 23904LQ  26037.47800926  .00000000  00000+0  00000-0 0  9997
2 67049  65.0000 240.0000 0000000   0.0000 330.0000 15.69614506    15
CTC1_L_00031021-03
1 67050U 25589SD  26037.47800926  .00000000  00000+0  00000-0 0  9990
2 67050  65.0000 240.0000 0000000   0.0000  60.0000 15.69614506    17
CTC1_L_00031021-04
1 67051U 26011KE  26037.47800926  .00000000  00000+0  00000-0 0  9992
2 67051  65.0000 240.0000 0000000   0.0000 150.0000 15.69614506    18
CTC1_L_00031022-01
1 67052U 22788NM  26037.47800926  .00000000  00000+0  00000-0 0  9990
2 67052  65.0000 252.0000 0000000   0.0000 252.0000 15.69614506    15
CTC1_L_00031022-02
1 67053U 26756VO  26037.47800926  .00000000  00000+0  00000-0 0  9990
2 67053  65.0000 252.0000 0000000   0.0000 342.0000 15.69614506    16
CTC1_L_00031022-03
1 67054U 25193YJ  26037.47800926  .00000000  00000+0  00000-0 0  9995
2 67054  65.0000 252.0000 0000000   0.0000  72.0000 15.69614506    17
CTC1_L_00031022-04
1 67055U 24445PB  26037.47800926  .00000000  00000+0  00000-0 0  9995
2 67055  65.0000 252.0000 0000000   0.0000 162.0000 15.69614506    18
CTC1_L_00031023-01
1 67056U 24815YK  26037.47800926  .00000000  00000+0  00000-0 0  9997
2 67056  65.0000 264.0000 0000000   0.0000 264.0000 15.69614506    15
CTC1_L_00031023-02
1 67057U 22070AL  26037.47800926  .00000000  00000+0  00000-0 0  9999
2 67057  65.0000 264.0000 0000000   0.0000 354.0000 15.69614506    16
CTC1_L_00031023-03
1 67058U 26951FE  26037.47800926  .00000000  00000+0  00000-0 0  9992
2 67058  65.0000 264.0000 0000000   0.0000  84.0000 15.69614506    17
CTC1_L_00031023-04
1 67059U 22127LR  26037.47800926  .00000000  00000+0  00000-0 0  9994
2 67059  65.0000 264.0000 0000000   0.0000 174.0000 15.69614506    18
CTC1_L_00031024-01
1 67060U 26713EX  26037.47800926  .00000000  00000+0  00000-0 0  9991
2 67060  65.0000 276.0000 0000000   0.0000 276.0000 15.69614506    16
CTC1_L_00031024-02
1 67061U 23528CC  26037.47800926  .00000000  00000+0  00000-0 0  9993
2 67061  65.0000 276.0000 0000000   0.0000   6.0000 15.69614506    18
CTC1_L_00031024-03
1 67062U 25381PI  26037.47800926  .00000000  00000+0  00000-0 0  9993
2 67062  65.0000 276.0000 0000000   0.0000  96.0000 15.69614506    18
CTC1_L_00031024-04
1 67063U 23896NQ  26037.47800926  .00000000  00000+0  00000-0 0  9993
2 67063  65.0000 276.0000 0000000   0.0000 186.0000 15.69614506    19
CTC1_L_00031025-01
1 67064U 22716AU  26037.47800926  .00000000  00000+0  00000-0 0  9994
2 67064  65.0000 288.0000 0000000   0.0000 288.0000 15.69614506    16
CTC1_L_00031025-02
1 67065U 22696RZ  26037.47800926  .00000000  00000+0  00000-0 0  9992
2 67065  65.0000 288.0000 0000000   0.0000  18.0000 15.69614506    18
CTC1_L_00031025-03
1 67066U 25691EG  26037.47800926  .00000000  00000+0  00000-0 0  9991
2 67066  65.0000 288.0000 0000000   0.0000 108.0000 15.69614506    19
CTC1_L_00031025-04
1 67067U 26031ZP  26037.47800926  .00000000  00000+0  00000-0 0  9991
2 67067  65.0000 288.0000 0000000   0.0000 198.0000 15.69614506    19
CTC1_L_00031026-01
1 67068U 25379GF  26037.47800926  .00000000  00000+0  00000-0 0  9996
2 67068  65.0000 300.0000 0000000   0.0000 300.0000 15.69614506    10
CTC1_L_00031026-02
1 67069U 23949YQ  26037.47800926  .00000000  00000+0  00000-0 0  9998
2 67069  65.0000 300.0000 0000000   0.0000  30.0000 15.69614506    11
CTC1_L_00031026-03
1 67070U 24586OS  26037.47800926  .00000000  00000+0  00000-0 0  9998
2 67070  65.0000 300.0000 0000000   0.0000 120.0000 15.69614506    13
CTC1_L_00031026-04
1 67071U 25981HD  26037.47800926  .00000000  00000+0  00000-0 0  9999
2 67071  65.0000 300.0000 0000000   0.0000 210.0000 15.69614506    14
CTC1_L_00031027-01
1 67072U 25148NA  26037.47800926  .00000000  00000+0  00000-0 0  9995
2 67072  65.0000 312.0000 0000000   0.0000 312.0000 15.69614506    11
CTC1_L_00031027-02
1 67073U 26422YL  26037.47800926  .00000000  00000+0  00000-0 0  9992
2 67073  65.0000 312.0000 0000000   0.0000  42.0000 15.69614506    12
CTC1_L_00031027-03
1 67074U 26111EZ  26037.47800926  .00000000  00000+0  00000-0 0  9998
2 67074  65.0000 312.0000 0000000   0.0000 132.0000 15.69614506    13
CTC1_L_00031027-04
1 67075U 25877AC  26037.47800926  .00000000  00000+0  00000-0 0  9997
2 67075  65.0000 312.0000 0000000   0.0000 222.0000 15.69614506    14
CTC1_L_00031028-01
1 67076U 24346NN  26037.47800926  .00000000  00000+0  00000-0 0  9998
2 67076  65.0000 324.0000 0000000   0.0000 324.0000 15.69614506    11
CTC1_L_00031028-02
1 67077U 23318FV  26037.47800926  .00000000  00000+0  00000-0 0  9997
2 67077  65.0000 324.0000 0000000   0.0000  54.0000 15.69614506    12
CTC1_L_00031028-03
1 67078U 26249DK  26037.47800926  .00000000  00000+0  00000-0 0  9994
2 67078  65.0000 324.0000 0000000   0.0000 144.0000 15.69614506    13
CTC1_L_00031028-04
1 67079U 26751EG  26037.47800926  .00000000  00000+0  00000-0 0  9993
2 67079  65.0000 324.0000 0000000   0.0000 234.0000 15.69614506    14
CTC1_L_00031029-01
1 67080U 23591KM  26037.47800926  .00000000  00000+0  00000-0 0  9994
2 67080  65.0000 336.0000 0000000   0.0000 336.0000 15.69614506    12
CTC1_L_00031029-02
1 67081U 26941PC  26037.47800926  .00000000  00000+0  00000-0 0  9997
2 67081  65.0000 336.0000 0000000   0.0000  66.0000 15.69614506    13
CTC1_L_00031029-03
1 67082U 23009QP  26037.47800926  .00000000  00000+0  00000-0 0  9990
2 67082  65.0000 336.0000 0000000   0.0000 156.0000 15.69614506    14
CTC1_L_00031029-04
1 67083U 25773CI  26037.47800926  .00000000  00000+0  00000-0 0  9991
2 67083  65.0000 336.0000 0000000   0.0000 246.0000 15.69614506    15
CTC1_L_00031030-01
1 67084U 22862ZC  26037.47800926  .00000000  00000+0  00000-0 0  9998
2 67084  65.0000 348.0000 0000000   0.0000 348.0000 15.69614506    12
CTC1_L_00031030-02
1 67085U 24728IL  26037.47800926  .00000000  00000+0  00000-0 0  9992
2 67085  65.0000 348.0000 0000000   0.0000  78.0000 15.69614506    13
CTC1_L_00031030-03
1 67086U 25311BY  26037.47800926  .00000000  00000+0  00000-0 0  9992
2 67086  65.0000 348.0000 0000000   0.0000 168.0000 15.69614506    14
CTC1_L_00031030-04
1 67087U 24841DB  26037.47800926  .00000000  00000+0  00000-0 0  9990
2 67087  65.0000 348.0000 0000000   0.0000 258.0000 15.69614506    15
